ONEWEB-0435             
1 51632U 22012L   22201.91668981 -.00035325  00000+0 -10157+0 0  9991
2 51632  87.8806 320.0331 0002760 112.5681 223.1644 13.10403858  1306
ONEWEB-0436             
1 51633U 22012M   22201.91668981 -.00055223  00000+0 -52310-2 0  9991
2 51633  87.1838 304.3692 0001630  57.2013 256.1754 14.94018962 25304
ONEWEB-0438             
1 51634U 22012N   22201.91668981 -.00037414  00000+0 -10762+0 0  9996
2 51634  87.8822 320.0228 0001609 102.0380 314.5213 13.10391979  1309
ONEWEB-0439             
1 51635U 22012P   22201.91668981 -.00036828  00000+0 -10592+0 0  9996
2 51635  87.8842 320.0507 0001938 100.0392 301.7037 13.10396718  1306
ONEWEB-0442             
1 51636U 22012Q   22201.91668981 -.00056170  00000+0 -53203-2 0  9998
2 51636  87.1819 304.3220 0004096 111.0156 261.9644 14.94020133 25304
ONEWEB-0443             
1 51637U 22012R   22201.91668981 -.00055391  00000+0 -52379-2 0  9996
2 51637  87.1838 304.3711 0001177 162.4487 146.9569 14.94088214 25307
ONEWEB-0444             
1 51638U 22012S   22201.91668981 -.00038561  00000+0 -11093+0 0  9992
2 51638  87.8859 320.0499 0002033 108.6970 337.0903 13.10393049  1308
ONEWEB-0445             
1 51639U 22012T   22201.91668981 -.00035352  00000+0 -10166+0 0  9998
2 51639  87.8849 320.0571 0001875  78.5270 264.4494 13.10397407  1300
ONEWEB-0446             
1 51640U 22012U   22201.91668981 -.00038843  00000+0 -11174+0 0  9998
2 51640  87.8860 320.0606 0002099  92.6469   0.6849 13.10396183  1304
ONEWEB-0448             
1 51641U 22012V   22201.91668981 -.00037979  00000+0 -10924+0 0  9990
2 51641  87.8859 320.0609 0002068 105.2241 325.9562 13.10397824  1309
ONEWEB-0449             
1 51642U 22012W   22201.91668981 -.00037108  00000+0 -10673+0 0  9996
2 51642  87.8875 320.0481 0001458  94.5581 314.6677 13.10396774  1300
ONEWEB-0451             
1 51643U 22012X   22201.91668981 -.00057593  00000+0 -54576-2 0  9990
2 51643  87.1854 304.4054 0002942 109.2908 141.6764 14.94013140  1300
ONEWEB-0452             
1 51644U 22012Y   22201.91668981 -.00059183  00000+0 -56101-2 0  9994
2 51644  87.1848 304.4027 0001258 114.3818  95.6014 14.94012168 25301
ONEWEB-0455             
1 51645U 22012Z   22201.81112083  .00000222  00000+0  91989-4 0  9994
2 51645  87.5313 313.8732 0019352  85.0724 275.2675 14.22282770 23164
