[{
    "OBJECT_NAME": "ONEWEB-0435",
    "OBJECT_ID": "2022-012L",
    "EPOCH": "2022-07-20T22:00:01.999584",
    "MEAN_MOTION": 13.10403858,
    "ECCENTRICITY": 0.000276,
    "INCLINATION": 87.8806,
    "RA_OF_ASC_NODE": 320.0331,
    "ARG_OF_PERICENTER": 112.5681,
    "MEAN_ANOMALY": 223.1644,
    "EPHEMERIS_TYPE": 0,
    "CLASSIFICATION_TYPE": "U",
    "NORAD_CAT_ID": 51632,
    "ELEMENT_SET_NO": 999,
    "REV_AT_EPOCH": 130,
    "BSTAR": -0.10157,
    "MEAN_MOTION_DOT": -0.00035325,
    "MEAN_MOTION_DDOT": 0
},{
    "OBJECT_NAME": "ONEWEB-0436",
    "OBJECT_ID": "2022-012M",
    "EPOCH": "2022-07-20T22:00:01.999584",
    "MEAN_MOTION": 14.94018962,
    "ECCENTRICITY": 0.000163,
    "INCLINATION": 87.1838,
    "RA_OF_ASC_NODE": 304.3692,
    "ARG_OF_PERICENTER": 57.2013,
    "MEAN_ANOMALY": 256.1754,
    "EPHEMERIS_TYPE": 0,
    "CLASSIFICATION_TYPE": "U",
    "NORAD_CAT_ID": 51633,
    "ELEMENT_SET_NO": 999,
    "REV_AT_EPOCH": 2530,
    "BSTAR": -0.005231,
    "MEAN_MOTION_DOT": -0.00055223,
    "MEAN_MOTION_DDOT": 0
},{
    "OBJECT_NAME": "ONEWEB-0438",
    "OBJECT_ID": "2022-012N",
    "EPOCH": "2022-07-20T22:00:01.999584",
    "MEAN_MOTION": 13.10391979,
    "ECCENTRICITY": 0.0001609,
    "INCLINATION": 87.8822,
    "RA_OF_ASC_NODE": 320.0228,
    "ARG_OF_PERICENTER": 102.038,
    "MEAN_ANOMALY": 314.5213,
    "EPHEMERIS_TYPE": 0,
    "CLASSIFICATION_TYPE": "U",
    "NORAD_CAT_ID": 51634,
    "ELEMENT_SET_NO": 999,
    "REV_AT_EPOCH": 130,
    "BSTAR": -0.10762,
    "MEAN_MOTION_DOT": -0.00037414,
    "MEAN_MOTION_DDOT": 0
},{
    "OBJECT_NAME": "ONEWEB-0439",
    "OBJECT_ID": "2022-012P",
    "EPOCH": "2022-07-20T22:00:01.999584",
    "MEAN_MOTION": 13.10396718,
    "ECCENTRICITY": 0.0001938,
    "INCLINATION": 87.8842,
    "RA_OF_ASC_NODE": 320.0507,
    "ARG_OF_PERICENTER": 100.0392,
    "MEAN_ANOMALY": 301.7037,
    "EPHEMERIS_TYPE": 0,
    "CLASSIFICATION_TYPE": "U",
    "NORAD_CAT_ID": 51635,
    "ELEMENT_SET_NO": 999,
    "REV_AT_EPOCH": 130,
    "BSTAR": -0.10592,
    "MEAN_MOTION_DOT": -0.00036828,
    "MEAN_MOTION_DDOT": 0
},{
    "OBJECT_NAME": "ONEWEB-0442",
    "OBJECT_ID": "2022-012Q",
    "EPOCH": "2022-07-20T22:00:01.999584",
    "MEAN_MOTION": 14.94020133,
    "ECCENTRICITY": 0.0004096,
    "INCLINATION": 87.1819,
    "RA_OF_ASC_NODE": 304.322,
    "ARG_OF_PERICENTER": 111.0156,
    "MEAN_ANOMALY": 261.9644,
    "EPHEMERIS_TYPE": 0,
    "CLASSIFICATION_TYPE": "U",
    "NORAD_CAT_ID": 51636,
    "ELEMENT_SET_NO": 999,
    "REV_AT_EPOCH": 2530,
    "BSTAR": -0.0053203,
    "MEAN_MOTION_DOT": -0.0005617,
    "MEAN_MOTION_DDOT": 0
},{
    "OBJECT_NAME": "ONEWEB-0443",
    "OBJECT_ID": "2022-012R",
    "EPOCH": "2022-07-20T22:00:01.999584",
    "MEAN_MOTION": 14.94088214,
    "ECCENTRICITY": 0.0001177,
    "INCLINATION": 87.1838,
    "RA_OF_ASC_NODE": 304.3711,
    "ARG_OF_PERICENTER": 162.4487,
    "MEAN_ANOMALY": 146.9569,
    "EPHEMERIS_TYPE": 0,
    "CLASSIFICATION_TYPE": "U",
    "NORAD_CAT_ID": 51637,
    "ELEMENT_SET_NO": 999,
    "REV_AT_EPOCH": 2530,
    "BSTAR": -0.0052379,
    "MEAN_MOTION_DOT": -0.00055391,
    "MEAN_MOTION_DDOT": 0
},{
    "OBJECT_NAME": "ONEWEB-0444",
    "OBJECT_ID": "2022-012S",
    "EPOCH": "2022-07-20T22:00:01.999584",
    "MEAN_MOTION": 13.10393049,
    "ECCENTRICITY": 0.0002033,
    "INCLINATION": 87.8859,
    "RA_OF_ASC_NODE": 320.0499,
    "ARG_OF_PERICENTER": 108.697,
    "MEAN_ANOMALY": 337.0903,
    "EPHEMERIS_TYPE": 0,
    "CLASSIFICATION_TYPE": "U",
    "NORAD_CAT_ID": 51638,
    "ELEMENT_SET_NO": 999,
    "REV_AT_EPOCH": 130,
    "BSTAR": -0.11093,
    "MEAN_MOTION_DOT": -0.00038561,
    "MEAN_MOTION_DDOT": 0
},{
    "OBJECT_NAME": "ONEWEB-0445",
    "OBJECT_ID": "2022-012T",
    "EPOCH": "2022-07-20T22:00:01.999584",
    "MEAN_MOTION": 13.10397407,
    "ECCENTRICITY": 0.0001875,
    "INCLINATION": 87.8849,
    "RA_OF_ASC_NODE": 320.0571,
    "ARG_OF_PERICENTER": 78.527,
    "MEAN_ANOMALY": 264.4494,
    "EPHEMERIS_TYPE": 0,
    "CLASSIFICATION_TYPE": "U",
    "NORAD_CAT_ID": 51639,
    "ELEMENT_SET_NO": 999,
    "REV_AT_EPOCH": 130,
    "BSTAR": -0.10166,
    "MEAN_MOTION_DOT": -0.00035352,
    "MEAN_MOTION_DDOT": 0
},{
    "OBJECT_NAME": "ONEWEB-0446",
    "OBJECT_ID": "2022-012U",
    "EPOCH": "2022-07-20T22:00:01.999584",
    "MEAN_MOTION": 13.10396183,
    "ECCENTRICITY": 0.0002099,
    "INCLINATION": 87.886,
    "RA_OF_ASC_NODE": 320.0606,
    "ARG_OF_PERICENTER": 92.6469,
    "MEAN_ANOMALY": 0.6849,
    "EPHEMERIS_TYPE": 0,
    "CLASSIFICATION_TYPE": "U",
    "NORAD_CAT_ID": 51640,
    "ELEMENT_SET_NO": 999,
    "REV_AT_EPOCH": 130,
    "BSTAR": -0.11174,
    "MEAN_MOTION_DOT": -0.00038843,
    "MEAN_MOTION_DDOT": 0
},{
    "OBJECT_NAME": "ONEWEB-0448",
    "OBJECT_ID": "2022-012V",
    "EPOCH": "2022-07-20T22:00:01.999584",
    "MEAN_MOTION": 13.10397824,
    "ECCENTRICITY": 0.0002068,
    "INCLINATION": 87.8859,
    "RA_OF_ASC_NODE": 320.0609,
    "ARG_OF_PERICENTER": 105.2241,
    "MEAN_ANOMALY": 325.9562,
    "EPHEMERIS_TYPE": 0,
    "CLASSIFICATION_TYPE": "U",
    "NORAD_CAT_ID": 51641,
    "ELEMENT_SET_NO": 999,
    "REV_AT_EPOCH": 130,
    "BSTAR": -0.10924,
    "MEAN_MOTION_DOT": -0.00037979,
    "MEAN_MOTION_DDOT": 0
},{
    "OBJECT_NAME": "ONEWEB-0449",
    "OBJECT_ID": "2022-012W",
    "EPOCH": "2022-07-20T22:00:01.999584",
    "MEAN_MOTION": 13.10396774,
    "ECCENTRICITY": 0.0001458,
    "INCLINATION": 87.8875,
    "RA_OF_ASC_NODE": 320.0481,
    "ARG_OF_PERICENTER": 94.5581,
    "MEAN_ANOMALY": 314.6677,
    "EPHEMERIS_TYPE": 0,
    "CLASSIFICATION_TYPE": "U",
    "NORAD_CAT_ID": 51642,
    "ELEMENT_SET_NO": 999,
    "REV_AT_EPOCH": 130,
    "BSTAR": -0.10673,
    "MEAN_MOTION_DOT": -0.00037108,
    "MEAN_MOTION_DDOT": 0
},{
    "OBJECT_NAME": "ONEWEB-0451",
    "OBJECT_ID": "2022-012X",
    "EPOCH": "2022-07-20T22:00:01.999584",
    "MEAN_MOTION": 14.9401314,
    "ECCENTRICITY": 0.0002942,
    "INCLINATION": 87.1854,
    "RA_OF_ASC_NODE": 304.4054,
    "ARG_OF_PERICENTER": 109.2908,
    "MEAN_ANOMALY": 141.6764,
    "EPHEMERIS_TYPE": 0,
    "CLASSIFICATION_TYPE": "U",
    "NORAD_CAT_ID": 51643,
    "ELEMENT_SET_NO": 999,
    "REV_AT_EPOCH": 130,
    "BSTAR": -0.0054576,
    "MEAN_MOTION_DOT": -0.00057593,
    "MEAN_MOTION_DDOT": 0
},{
    "OBJECT_NAME": "ONEWEB-0452",
    "OBJECT_ID": "2022-012Y",
    "EPOCH": "2022-07-20T22:00:01.999584",
    "MEAN_MOTION": 14.94012168,
    "ECCENTRICITY": 0.0001258,
    "INCLINATION": 87.1848,
    "RA_OF_ASC_NODE": 304.4027,
    "ARG_OF_PERICENTER": 114.3818,
    "MEAN_ANOMALY": 95.6014,
    "EPHEMERIS_TYPE": 0,
    "CLASSIFICATION_TYPE": "U",
    "NORAD_CAT_ID": 51644,
    "ELEMENT_SET_NO": 999,
    "REV_AT_EPOCH": 2530,
    "BSTAR": -0.0056101,
    "MEAN_MOTION_DOT": -0.00059183,
    "MEAN_MOTION_DDOT": 0
},{
    "OBJECT_NAME": "ONEWEB-0455",
    "OBJECT_ID": "2022-012Z",
    "EPOCH": "2022-07-20T19:28:00.839712",
    "MEAN_MOTION": 14.2228277,
    "ECCENTRICITY": 0.0019352,
    "INCLINATION": 87.5313,
    "RA_OF_ASC_NODE": 313.8732,
    "ARG_OF_PERICENTER": 85.0724,
    "MEAN_ANOMALY": 275.2675,
    "EPHEMERIS_TYPE": 0,
    "CLASSIFICATION_TYPE": "U",
    "NORAD_CAT_ID": 51645,
    "ELEMENT_SET_NO": 999,
    "REV_AT_EPOCH": 2316,
    "BSTAR": 9.1989e-5,
    "MEAN_MOTION_DOT": 2.22e-6,
    "MEAN_MOTION_DDOT": 0
}]
